CCSDS_OMM_VERS = 2.0
CREATION_DATE  = 
ORIGINATOR     = 

OBJECT_NAME    = STARLINK-35444
OBJECT_ID      = 2025-263AC
CENTER_NAME    = EARTH
REF_FRAME      = TEME
TIME_SYSTEM    = UTC
MEAN_ELEMENT_THEORY = SGP/SGP4

EPOCH          = 2025-11-21T16:00:05.000256
MEAN_MOTION    = 16.03283905
ECCENTRICITY   = .0002175
INCLINATION    = 43.0007
RA_OF_ASC_NODE = 252.5046
ARG_OF_PERICENTER = 258.6878
MEAN_ANOMALY   = 114.7504

EPHEMERIS_TYPE = 0
CLASSIFICATION_TYPE = U
NORAD_CAT_ID   = 66511
ELEMENT_SET_NO = 999
REV_AT_EPOCH   = 224
BSTAR          = -.17432E-2
MEAN_MOTION_DOT = -.1125853E-1
MEAN_MOTION_DDOT = .42209E-3

CCSDS_OMM_VERS = 2.0
CREATION_DATE  = 
ORIGINATOR     = 

OBJECT_NAME    = STARLINK-35366
OBJECT_ID      = 2025-263AD
CENTER_NAME    = EARTH
REF_FRAME      = TEME
TIME_SYSTEM    = UTC
MEAN_ELEMENT_THEORY = SGP/SGP4

EPOCH          = 2025-11-21T16:00:05.000256
MEAN_MOTION    = 16.03542628
ECCENTRICITY   = .0002095
INCLINATION    = 43.0005
RA_OF_ASC_NODE = 252.4952
ARG_OF_PERICENTER = 258.1982
MEAN_ANOMALY   = 118.8515

EPHEMERIS_TYPE = 0
CLASSIFICATION_TYPE = U
NORAD_CAT_ID   = 66512
ELEMENT_SET_NO = 999
REV_AT_EPOCH   = 224
BSTAR          = -.17213E-2
MEAN_MOTION_DOT = -.1129049E-1
MEAN_MOTION_DDOT = .42552E-3

CCSDS_OMM_VERS = 2.0
CREATION_DATE  = 
ORIGINATOR     = 

OBJECT_NAME    = STARLINK-35692
OBJECT_ID      = 2025-263AE
CENTER_NAME    = EARTH
REF_FRAME      = TEME
TIME_SYSTEM    = UTC
MEAN_ELEMENT_THEORY = SGP/SGP4

EPOCH          = 2025-11-21T16:00:05.000256
MEAN_MOTION    = 16.03188374
ECCENTRICITY   = .0002111
INCLINATION    = 43.0008
RA_OF_ASC_NODE = 252.5084
ARG_OF_PERICENTER = 259.9229
MEAN_ANOMALY   = 111.9650

EPHEMERIS_TYPE = 0
CLASSIFICATION_TYPE = U
NORAD_CAT_ID   = 66513
ELEMENT_SET_NO = 999
REV_AT_EPOCH   = 224
BSTAR          = -.17651E-2
MEAN_MOTION_DOT = -.113341E-1
MEAN_MOTION_DDOT = .42682E-3

CCSDS_OMM_VERS = 2.0
CREATION_DATE  = 
ORIGINATOR     = 

OBJECT_NAME    = SENTINEL-6B
OBJECT_ID      = 2025-264A
CENTER_NAME    = EARTH
REF_FRAME      = TEME
TIME_SYSTEM    = UTC
MEAN_ELEMENT_THEORY = SGP/SGP4

EPOCH          = 2025-11-21T20:35:54.995424
MEAN_MOTION    = 12.85876841
ECCENTRICITY   = .0011467
INCLINATION    = 66.0406
RA_OF_ASC_NODE = 206.1161
ARG_OF_PERICENTER = 270.6891
MEAN_ANOMALY   = 89.2813

EPHEMERIS_TYPE = 0
CLASSIFICATION_TYPE = U
NORAD_CAT_ID   = 66514
ELEMENT_SET_NO = 999
REV_AT_EPOCH   = 60
BSTAR          = .41752E-2
MEAN_MOTION_DOT = .969E-5
MEAN_MOTION_DDOT = 0

CCSDS_OMM_VERS = 2.0
CREATION_DATE  = 
ORIGINATOR     = 

OBJECT_NAME    = SZ-21 MODULE
OBJECT_ID      = 2025-246C
CENTER_NAME    = EARTH
REF_FRAME      = TEME
TIME_SYSTEM    = UTC
MEAN_ELEMENT_THEORY = SGP/SGP4

EPOCH          = 2025-11-21T19:41:15.383616
MEAN_MOTION    = 15.61094701
ECCENTRICITY   = .0004562
INCLINATION    = 41.4748
RA_OF_ASC_NODE = 143.5222
ARG_OF_PERICENTER = 114.6347
MEAN_ANOMALY   = 245.4967

EPHEMERIS_TYPE = 0
CLASSIFICATION_TYPE = U
NORAD_CAT_ID   = 66515
ELEMENT_SET_NO = 999
REV_AT_EPOCH   = 117
BSTAR          = .30435E-3
MEAN_MOTION_DOT = .26158E-3
MEAN_MOTION_DDOT = 0

CCSDS_OMM_VERS = 2.0
CREATION_DATE  = 
ORIGINATOR     = 

OBJECT_NAME    = SHIJIAN-30A
OBJECT_ID      = 2025-266A
CENTER_NAME    = EARTH
REF_FRAME      = TEME
TIME_SYSTEM    = UTC
MEAN_ELEMENT_THEORY = SGP/SGP4

EPOCH          = 2025-11-21T20:26:59.692128
MEAN_MOTION    = 15.15615061
ECCENTRICITY   = .0012784
INCLINATION    = 51.7998
RA_OF_ASC_NODE = 70.6968
ARG_OF_PERICENTER = 282.0289
MEAN_ANOMALY   = 77.9254

EPHEMERIS_TYPE = 0
CLASSIFICATION_TYPE = U
NORAD_CAT_ID   = 66545
ELEMENT_SET_NO = 999
REV_AT_EPOCH   = 41
BSTAR          = .40965E-3
MEAN_MOTION_DOT = .7592E-4
MEAN_MOTION_DDOT = 0

CCSDS_OMM_VERS = 2.0
CREATION_DATE  = 
ORIGINATOR     = 

OBJECT_NAME    = SHIJIAN-30B
OBJECT_ID      = 2025-266B
CENTER_NAME    = EARTH
REF_FRAME      = TEME
TIME_SYSTEM    = UTC
MEAN_ELEMENT_THEORY = SGP/SGP4

EPOCH          = 2025-11-21T20:27:37.721088
MEAN_MOTION    = 15.15372211
ECCENTRICITY   = .001048
INCLINATION    = 51.7981
RA_OF_ASC_NODE = 70.6997
ARG_OF_PERICENTER = 281.2942
MEAN_ANOMALY   = 78.6857

EPHEMERIS_TYPE = 0
CLASSIFICATION_TYPE = U
NORAD_CAT_ID   = 66546
ELEMENT_SET_NO = 999
REV_AT_EPOCH   = 41
BSTAR          = .41365E-3
MEAN_MOTION_DOT = .7611E-4
MEAN_MOTION_DDOT = 0

CCSDS_OMM_VERS = 2.0
CREATION_DATE  = 
ORIGINATOR     = 

OBJECT_NAME    = SHIJIAN-30C
OBJECT_ID      = 2025-266C
CENTER_NAME    = EARTH
REF_FRAME      = TEME
TIME_SYSTEM    = UTC
MEAN_ELEMENT_THEORY = SGP/SGP4

EPOCH          = 2025-11-21T20:28:13.755936
MEAN_MOTION    = 15.15132765
ECCENTRICITY   = .001125
INCLINATION    = 51.7990
RA_OF_ASC_NODE = 70.7018
ARG_OF_PERICENTER = 274.7404
MEAN_ANOMALY   = 85.2288

EPHEMERIS_TYPE = 0
CLASSIFICATION_TYPE = U
NORAD_CAT_ID   = 66547
ELEMENT_SET_NO = 999
REV_AT_EPOCH   = 41
BSTAR          = .69845E-3
MEAN_MOTION_DOT = .12988E-3
MEAN_MOTION_DDOT = 0

CCSDS_OMM_VERS = 2.0
CREATION_DATE  = 
ORIGINATOR     = 

OBJECT_NAME    = CZ-2C R/B
OBJECT_ID      = 2025-266D
CENTER_NAME    = EARTH
REF_FRAME      = TEME
TIME_SYSTEM    = UTC
MEAN_ELEMENT_THEORY = SGP/SGP4

EPOCH          = 2025-11-21T19:52:44.985216
MEAN_MOTION    = 15.29525229
ECCENTRICITY   = .0085441
INCLINATION    = 52.0562
RA_OF_ASC_NODE = 70.8547
ARG_OF_PERICENTER = 101.8601
MEAN_ANOMALY   = 259.1982

EPHEMERIS_TYPE = 0
CLASSIFICATION_TYPE = U
NORAD_CAT_ID   = 66548
ELEMENT_SET_NO = 999
REV_AT_EPOCH   = 41
BSTAR          = .47015E-3
MEAN_MOTION_DOT = .14878E-3
MEAN_MOTION_DDOT = 0

CCSDS_OMM_VERS = 2.0
CREATION_DATE  = 
ORIGINATOR     = 

OBJECT_NAME    = TJS-21
OBJECT_ID      = 2025-269A
CENTER_NAME    = EARTH
REF_FRAME      = TEME
TIME_SYSTEM    = UTC
MEAN_ELEMENT_THEORY = SGP/SGP4

EPOCH          = 2025-11-21T12:42:44.887680
MEAN_MOTION    = 2.00980886
ECCENTRICITY   = .7517257
INCLINATION    = 51.0457
RA_OF_ASC_NODE = 174.8337
ARG_OF_PERICENTER = 224.9550
MEAN_ANOMALY   = 41.7928

EPHEMERIS_TYPE = 0
CLASSIFICATION_TYPE = U
NORAD_CAT_ID   = 66586
ELEMENT_SET_NO = 999
REV_AT_EPOCH   = 1
BSTAR          = .52022E-3
MEAN_MOTION_DOT = .2832E-4
MEAN_MOTION_DDOT = 0

CCSDS_OMM_VERS = 2.0
CREATION_DATE  = 
ORIGINATOR     = 

OBJECT_NAME    = CZ-3B R/B
OBJECT_ID      = 2025-269B
CENTER_NAME    = EARTH
REF_FRAME      = TEME
TIME_SYSTEM    = UTC
MEAN_ELEMENT_THEORY = SGP/SGP4

EPOCH          = 2025-11-21T12:42:23.351616
MEAN_MOTION    = 2.01465750
ECCENTRICITY   = .7521144
INCLINATION    = 51.3636
RA_OF_ASC_NODE = 174.5119
ARG_OF_PERICENTER = 224.9566
MEAN_ANOMALY   = 41.7220

EPHEMERIS_TYPE = 0
CLASSIFICATION_TYPE = U
NORAD_CAT_ID   = 66587
ELEMENT_SET_NO = 999
REV_AT_EPOCH   = 2
BSTAR          = .51894E-3
MEAN_MOTION_DOT = .6929E-4
MEAN_MOTION_DDOT = -.86139E-6

